STARLINK-32228          
1 60445U 24144W   24271.25001157  .00023590  00000+0  80612-3 0  9999
2 60445  53.1592 151.3375 0001050  76.3185  58.5754 15.30198243  8443
STARLINK-32247          
1 60446U 24144X   24271.58334491  .00192588  00000+0  13401-2 0  9991
2 60446  53.1538 146.5322 0002561 226.4079 119.9988 15.73289390  8532
STARLINK-32101          
1 60447U 24144Y   24271.25001157  .00019999  00000+0  68549-3 0  9994
2 60447  53.1585 151.3954 0001311  72.9391  32.8771 15.30201580  8343
STARLINK-31844          
1 60583U 24150A   24271.17602679  .00009666  00000+0  25138-3 0  9996
2 60583  53.1594 244.0504 0001510  79.0747 281.0427 15.39614209  7091
STARLINK-32204          
1 60584U 24150B   24270.36453079 -.00000747  00000+0 -87039-5 0  9998
2 60584  53.1571 247.5100 0001350 137.6109 222.5000 15.39617296  6974
STARLINK-32130          
1 60585U 24150C   24271.22667131 -.00001188  00000+0 -19724-4 0  9996
2 60585  53.1596 243.6498 0001320  88.1413 271.9743 15.39615043  6941
STARLINK-32173          
1 60586U 24150D   24271.32398904  .00004439  00000+0  12085-3 0  9999
2 60586  53.1604 242.8276 0001550 103.6107 256.5071 15.39629918  7125
STARLINK-31911          
1 60587U 24150E   24271.34753157  .00001133  00000+0  38284-4 0  9995
2 60587  53.1599 242.9767 0001198  74.5135 285.6002 15.39636308  7005
STARLINK-31994          
1 60588U 24150F   24271.25011399  .00001351  00000+0  43744-4 0  9990
2 60588  53.1603 243.0797 0001385  91.6789 268.4375 15.39635724  6990
STARLINK-32169          
1 60589U 24150G   24271.17103682  .00001150  00000+0  38717-4 0  9990
2 60589  53.1601 244.0129 0001136 120.6734 239.4383 15.39627725  7097
STARLINK-32209          
1 60590U 24150H   24271.20345504  .00023053  00000+0  58435-3 0  9991
2 60590  53.1586 243.5016 0001055  67.9306 292.1811 15.39630966  7103
STARLINK-32170          
1 60591U 24150J   24271.36115139  .00002082  00000+0  61993-4 0  9991
2 60591  53.1607 243.0642 0001414 124.9565 235.1573 15.39627793  7003
STARLINK-31497          
1 60592U 24150K   24271.14815931  .00003122  00000+0  88061-4 0  9996
2 60592  53.1602 243.8656 0002184 102.3228 257.8022 15.39606328  7093
STARLINK-32161          
1 60593U 24150L   24271.19881271 -.00000612  00000+0 -53071-5 0  9999
2 60593  53.1602 243.4716 0001440  86.9326 273.1843 15.39615239  7056
STARLINK-32210          
1 60594U 24150M   24270.33667397 -.00000265  00000+0  33684-5 0  9997
2 60594  53.1603 247.3383 0001271  78.0450 282.0697 15.39615107  6973
STARLINK-32202          
1 60595U 24150N   24271.22234847  .00002377  00000+0  69358-4 0  9998
2 60595  53.1586 243.6232 0001482 131.4888 228.6244 15.39631236  7100
STARLINK-31930          
1 60596U 24150P   24271.31967794  .00005690  00000+0  15207-3 0  9997
2 60596  53.1601 242.8019 0001888 102.9413 257.1803 15.39634525  6965
STARLINK-32162          
1 60597U 24150Q   24271.23164781  .00001843  00000+0  56038-4 0  9998
2 60597  53.1587 243.6773 0001116 127.1487 232.9620 15.39617439  7109
STARLINK-32208          
1 60598U 24150R   24271.17137193  .00017606  00000+0  44908-3 0  9995
2 60598  53.1592 244.0147 0001836 126.5459 233.5715 15.39621511  7093
STARLINK-32165          
1 60599U 24150S   24270.64276669 -.00000267  00000+0  33113-5 0  9993
2 60599  53.1576 246.4033 0001133 104.2921 255.8210 15.39616639  7017
STARLINK-31923          
1 60600U 24150T   24270.96237121  .00000936  00000+0  33387-4 0  9995
2 60600  53.1586 244.8400 0001302  99.9006 260.2146 15.39615578  7067
STARLINK-31988          
1 60601U 24150U   24271.21738391  .00000756  00000+0  28880-4 0  9992
2 60601  53.1588 243.5866 0001276  92.1163 267.9988 15.39618022  6986
STARLINK-31983          
1 60602U 24150V   24271.20812078  .00028651  00000+0  72348-3 0  9998
2 60602  53.1584 243.5300 0001529  65.9721 294.1444 15.39622841  6988
STARLINK-31874          
1 60603U 24150W   24271.21273384  .00006111  00000+0  16263-3 0  9992
2 60603  53.1580 243.5557 0001178  82.9345 277.1794 15.39620417  7099
STARLINK-32039          
1 60604U 24150X   24271.16907006  .00000312  00000+0  22663-4 0  9991
2 60604  53.1604 244.7093 0001851  85.3317 274.7895 15.30188897  7085
STARLINK-11247 [DTC]    
1 60720U 24152A   24270.55221435  .00000705  00000+0  10680-4 0  9991
2 60720  53.1595 205.0257 0000898 103.6947 256.4170 15.69702377  5738
STARLINK-11259 [DTC]    
1 60721U 24152B   24271.18399688 -.00001121  00000+0 -43958-5 0  9998
2 60721  53.1601 201.8589 0001038  91.0318 269.0819 15.69721229  5689
STARLINK-11188 [DTC]    
1 60722U 24152C   24271.24277663 -.00003748  00000+0 -26114-4 0  9995
2 60722  53.1608 201.5089 0001536 106.4355 253.6832 15.69687065  5957
STARLINK-11272 [DTC]    
1 60723U 24152D   24270.53258926 -.00002211  00000+0 -13395-4 0  9999
2 60723  53.1615 204.8919 0001317 117.9940 242.1211 15.69707754  5725
STARLINK-11261 [DTC]    
1 60724U 24152E   24271.11052515  .00001297  00000+0  15567-4 0  9995
2 60724  53.1614 202.1058 0001121  97.7609 262.3536 15.69707639  5827
STARLINK-11263 [DTC]    
1 60725U 24152F   24271.10070800  .00003488  00000+0  33624-4 0  9990
2 60725  53.1608 202.0395 0001135  78.4397 281.6748 15.69718908  5830
STARLINK-11235 [DTC]    
1 60726U 24152G   24271.22314920 -.00007610  00000+0 -58055-4 0  9996
2 60726  53.1606 201.3762 0001438 118.2572 241.8591 15.69689182  5962
STARLINK-11080 [DTC]    
1 60727U 24152H   24271.21824427 -.00005249  00000+0 -38520-4 0  9995
2 60727  53.1609 201.3450 0001297  85.0500 275.0666 15.69693831  5963
STARLINK-11249 [DTC]    
1 60728U 24152J   24271.53167800  .00003257  00000+0  31728-4 0  9994
2 60728  53.1602 199.7417 0001143  95.4639 264.6509 15.69715349  5901
STARLINK-11146 [DTC]    
1 60729U 24152K   24271.20842558  .00002101  00000+0  22197-4 0  9996
2 60729  53.1583 201.2721 0001312 103.7661 256.3503 15.69710848  5960
STARLINK-11255 [DTC]    
1 60730U 24152L   24271.52186452  .00000363  00000+0  78503-5 0  9998
2 60730  53.1613 199.6766 0000765 107.7292 252.3809 15.69713083  5891
STARLINK-11254 [DTC]    
1 60731U 24152M   24271.00760910  .00004497  00000+0  41957-4 0  9993
2 60731  53.1607 202.1518 0001217  88.6209 271.4949 15.69709142  5818
STARLINK-11266 [DTC]    
1 60732U 24152N   24271.50001157 -.00045634  00000+0 -37362-3 0  9994
2 60732  53.1582 199.6647 0001079  95.5772 196.4329 15.69726398  5890
STARLINK-32253          
1 60733U 24152P   24271.58334491 -.01594190  00000+0 -40899-1 0  9997
2 60733  53.1592 201.4995 0001104  73.6214 308.3165 15.42086293  5949
STARLINK-32179          
1 60734U 24152Q   24271.25001157 -.01466951  00000+0 -43410-1 0  9997
2 60734  53.1604 203.4266 0001368  68.8822  87.1376 15.37514983  5830
STARLINK-32272          
1 60735U 24152R   24271.25001157 -.01469831  00000+0 -41456-1 0  9996
2 60735  53.1603 203.3832 0001225  71.2905 106.5119 15.38983899  5894
STARLINK-32280          
1 60736U 24152S   24271.25001157 -.01520171  00000+0 -40591-1 0  9991
2 60736  53.1595 203.1604 0001207  72.2150 216.7820 15.40739313  5899
STARLINK-32289          
1 60737U 24152T   24271.25001157 -.01465128  00000+0 -39351-1 0  9994
2 60737  53.1604 203.3439 0001309  69.0527 128.1505 15.40447478  5922
STARLINK-32304          
1 60738U 24152U   24271.58334491 -.01511100  00000+0 -41164-1 0  9998
2 60738  53.1604 201.7513 0001191  84.3311 171.5028 15.40120446  5978
STARLINK-32235          
1 60739U 24152V   24271.50001157 -.01542352  00000+0 -40690-1 0  9997
2 60739  53.1602 202.1264 0001289  70.3829  91.9790 15.41145375  5927
STARLINK-32315          
1 60740U 24152W   24271.58334491 -.01512263  00000+0 -39228-1 0  9990
2 60740  53.1601 201.7156 0001016  85.2235 188.1968 15.41587848  5883
STARLINK-11242 [DTC]    
1 60903U 24154A   24270.30413523  .00005095  00000+0  35114-4 0  9996
2 60903  53.1589 222.7534 0000907  84.8992 275.2133 15.76724643  5342
STARLINK-11256 [DTC]    
1 60904U 24154B   24271.25004873  .00005890  00000+0  39992-4 0  9997
2 60904  53.1591 217.9864 0001533  97.4931 262.6265 15.76712757  5492
STARLINK-11159 [DTC]    
1 60905U 24154C   24271.11839817  .00021943  00000+0  13756-3 0  9993
2 60905  53.1598 218.5845 0001213 102.4071 257.7086 15.76755150  5471
STARLINK-11264 [DTC]    
1 60906U 24154D   24271.55721038  .00011083  00000+0  71540-4 0  9997
2 60906  53.1594 216.3408 0000792 104.6178 255.4931 15.76754598  5549
STARLINK-11226 [DTC]    
1 60907U 24154E   24271.55235104  .00009678  00000+0  63053-4 0  9999
2 60907  53.1592 216.3085 0001690  99.1899 260.9313 15.76733499  5536
STARLINK-11229 [DTC]    
1 60908U 24154F   24270.59668542  .00001681  00000+0  14268-4 0  9999
2 60908  53.1600 221.0110 0001120  90.9812 269.1338 15.76720217  5397
STARLINK-11265 [DTC]    
1 60909U 24154G   24271.16228780 -.00015020  00000+0 -88067-4 0  9992
2 60909  53.1593 218.1361 0001641  64.5987 295.5204 15.76692405  5473
STARLINK-11250 [DTC]    
1 60910U 24154H   24271.15739799  .00005310  00000+0  36400-4 0  9993
2 60910  53.1597 218.1044 0001183  98.3038 261.8117 15.76741549  5473
STARLINK-11190 [DTC]    
1 60911U 24154J   24271.27932116  .00070244  00000+0  42944-3 0  9992
2 60911  53.1587 217.4410 0000925 101.7416 258.3709 15.76739423  5492
STARLINK-11225 [DTC]    
1 60912U 24154K   24271.14765362  .00009022  00000+0  59034-4 0  9991
2 60912  53.1595 218.0411 0001388  80.4174 279.7003 15.76741154  5474
STARLINK-11273 [DTC]    
1 60913U 24154L   24271.26955078 -.00002485  00000+0 -11196-4 0  9995
2 60913  53.1601 217.3727 0001390 115.8327 244.2837 15.76714853  5503
STARLINK-11248 [DTC]    
1 60914U 24154M   24271.26467985 -.00005740  00000+0 -31131-4 0  9999
2 60914  53.1597 217.3405 0001234 114.2380 245.8770 15.76704948  5495
STARLINK-11271 [DTC]    
1 60915U 24154N   24271.25979755  .00000161  00000+0  49789-5 0  9991
2 60915  53.1615 217.3073 0000765  90.6832 269.4277 15.76722554  5492
